NORAD_CAT_ID,OBJECT_NAME,OBJECT_TYPE,EPOCH,MEAN_MOTION,ECCENTRICITY,INCLINATION,RA_OF_ASC_NODE,ARG_OF_PERICENTER,MEAN_ANOMALY,BSTAR,MEAN_MOTION_DOT,MEAN_MOTION_DDOT,TLE_LINE0,TLE_LINE1,TLE_LINE2,SEMIMAJOR_AXIS,PERIOD,APOGEE,PERIGEE,DECAYED
53396.0,STARLINK-4524,PAYLOAD,2022-11-27 19:13:40,15.08828203,0.0002591,53.2196,101.6511,44.9723,315.1479,-2.0449e-05,-6.14e-06,0.0,0 STARLINK-4524,1 53396U 22097J   22331.80116425 -.00000614  00000-0 -20449-4 0  9990,2 53396  53.2196 101.6511 0002591  44.9723 315.1479 15.08828203 17189,6917.916,95.438,541.5740000000002,537.989,0.0
53396.0,STARLINK-4524,PAYLOAD,2022-11-28 09:32:08,15.08838743,0.0002568,53.2199,98.9752,44.3115,315.8083,-3.2627e-05,-8.08e-06,0.0,0 STARLINK-4524,1 53396U 22097J   22332.39731982 -.00000808  00000-0 -32627-4 0  9992,2 53396  53.2199  98.9752 0002568  44.3115 315.8083 15.08838743 17278,6917.884,95.438,541.526,537.9730000000002,0.0
53396.0,STARLINK-4524,PAYLOAD,2022-11-29 09:22:55,15.08829453,0.0002547,53.2201,94.5146,44.726000000000006,315.3937,7.105100000000001e-05,8.42e-06,0.0,0 STARLINK-4524,1 53396U 22097J   22333.39092349  .00000842  00000-0  71051-4 0  9990,2 53396  53.2201  94.5146 0002547  44.7260 315.3937 15.08829453 17915,6917.913000000001,95.438,541.54,538.016,0.0
53396.0,STARLINK-4524,PAYLOAD,2022-11-29 17:19:51,15.088362599999998,0.0002744,53.22,93.0274,43.934,316.187,0.00010844,1.438e-05,0.0,0 STARLINK-4524,1 53396U 22097J   22333.72212038  .00001438  00000-0  10844-3 0  9990,2 53396  53.2200  93.0274 0002744  43.9340 316.1870 15.08836260 17479,6917.892,95.438,541.655,537.859,0.0
53396.0,STARLINK-4524,PAYLOAD,2022-11-30 13:59:52,15.08835865,0.000265,53.22,89.1617,46.6474,313.4739,3.9369e-05,3.38e-06,0.0,0 STARLINK-4524,1 53396U 22097J   22334.58324604  .00000338  00000-0  39369-4 0  9990,2 53396  53.2200  89.1617 0002650  46.6474 313.4739 15.08835865 18093,6917.893,95.438,541.591,537.925,0.0
53396.0,STARLINK-4524,PAYLOAD,2022-11-30 17:10:38,15.08837268,0.0002729,53.2195,88.5682,36.1392,323.9784,8.1168e-05,1.003e-05,0.0,0 STARLINK-4524,1 53396U 22097J   22334.71572322  .00001003  00000-0  81168-4 0  9991,2 53396  53.2195  88.5682 0002729  36.1392 323.9784 15.08837268 18119,6917.889,95.438,541.6419999999998,537.866,0.0
53396.0,STARLINK-4524,PAYLOAD,2022-12-01 01:07:33,15.08842904,0.0002664,53.2202,87.0808,44.2194,315.901,8.434399999999999e-05,1.054e-05,0.0,0 STARLINK-4524,1 53396U 22097J   22335.04691963  .00001054  00000-0  84344-4 0  9996,2 53396  53.2202  87.0808 0002664  44.2194 315.9010 15.08842904 17676,6917.871999999999,95.437,541.5790000000002,537.894,0.0
53396.0,STARLINK-4524,PAYLOAD,2022-12-01 13:50:39,15.08837953,0.0002641,53.2196,84.7025,44.2928,315.8275,0.00013838,1.915e-05,0.0,0 STARLINK-4524,1 53396U 22097J   22335.57684192  .00001915  00000-0  13838-3 0  9995,2 53396  53.2196  84.7025 0002641  44.2928 315.8275 15.08837953 18247,6917.887,95.438,541.5790000000002,537.925,0.0
53396.0,STARLINK-4524,PAYLOAD,2022-12-01 18:36:48,15.08842416,0.0002598,53.2194,83.81,39.6814,320.4368,0.00010102,1.32e-05,0.0,0 STARLINK-4524,1 53396U 22097J   22335.77555987  .00001320  00000-0  10102-3 0  9997,2 53396  53.2194  83.8100 0002598  39.6814 320.4368 15.08842416 18270,6917.873000000001,95.437,541.535,537.941,0.0
53396.0,STARLINK-4524,PAYLOAD,2022-12-02 13:41:25,15.08848359,0.0002918,53.2216,80.2404,64.4786,295.6507,7.7366e-05,9.43e-06,0.0,0 STARLINK-4524,1 53396U 22097J   22336.57043583  .00000943  00000-0  77366-4 0  9996,2 53396  53.2216  80.2404 0002918  64.4786 295.6507 15.08848359 17902,6917.855,95.437,541.738,537.701,0.0
53396.0,STARLINK-4524,PAYLOAD,2022-12-02 16:52:12,15.08847463,0.0003021,53.2207,79.6469,56.1686,303.9593,6.4448e-05,7.37e-06,0.0,0 STARLINK-4524,1 53396U 22097J   22336.70291692  .00000737  00000-0  64448-4 0  9995,2 53396  53.2207  79.6469 0003021  56.1686 303.9593 15.08847463 18418,6917.858,95.437,541.812,537.633,0.0
53396.0,STARLINK-4524,PAYLOAD,2022-12-03 13:32:12,15.08846451,0.0002458,53.2209,75.7819,41.1517,318.966,6.9196e-05,8.13e-06,0.0,0 STARLINK-4524,1 53396U 22097J   22337.56403632  .00000813  00000-0  69196-4 0  9999,2 53396  53.2209  75.7819 0002458  41.1517 318.9660 15.08846451 18053,6917.861,95.437,541.4259999999998,538.025,0.0
53396.0,STARLINK-4524,PAYLOAD,2022-12-03 16:42:59,15.08843015,0.0002405,53.2209,75.1888,38.13800000000001,321.9782,6.0711e-05,6.78e-06,0.0,0 STARLINK-4524,1 53396U 22097J   22337.69651847  .00000678  00000-0  60711-4 0  9999,2 53396  53.2209  75.1888 0002405  38.1380 321.9782 15.08843015 18567,6917.871,95.437,541.4,538.072,0.0
53396.0,STARLINK-4524,PAYLOAD,2022-12-03 18:18:22,15.08839283,0.000245,53.2203,74.89,38.4576,321.659,1.4653e-05,-5.5e-07,0.0,0 STARLINK-4524,1 53396U 22097J   22337.76276226 -.00000055  00000-0  14653-4 0  9995,2 53396  53.2203  74.8900 0002450  38.4576 321.6590 15.08839283 18085,6917.8830000000025,95.438,541.442,538.053,0.0
53396.0,STARLINK-4524,PAYLOAD,2022-12-04 13:23:00,15.08832496,0.0002468,53.2202,71.3222,36.4483,323.6677,8.0867e-05,9.99e-06,0.0,0 STARLINK-4524,1 53396U 22097J   22338.55764602  .00000999  00000-0  80867-4 0  9999,2 53396  53.2202  71.3222 0002468  36.4483 323.6677 15.08832496 18691,6917.903,95.438,541.476,538.061,0.0
53396.0,STARLINK-4524,PAYLOAD,2022-12-04 22:55:18,15.08844495,0.0002416,53.2207,69.5379,34.9555,325.1596,0.00010319,1.355e-05,0.0,0 STARLINK-4524,1 53396U 22097J   22338.95507872  .00001355  00000-0  10319-3 0  9998,2 53396  53.2207  69.5379 0002416  34.9555 325.1596 15.08844495 18266,6917.8669999999975,95.437,541.403,538.06,0.0
53396.0,STARLINK-4524,PAYLOAD,2022-12-05 13:13:47,15.08847776,0.0002481,53.2209,66.8625,38.8403,321.2767,2.1013e-05,4.6e-07,0.0,0 STARLINK-4524,1 53396U 22097J   22339.55123860  .00000046  00000-0  21013-4 0  9996,2 53396  53.2209  66.8625 0002481  38.8403 321.2767 15.08847776 18845,6917.857,95.437,541.438,538.005,0.0
53396.0,STARLINK-4524,PAYLOAD,2022-12-06 05:07:37,15.08847977,0.0002437,53.2215,63.8891,35.3064,324.8089,0.00016643,2.362e-05,0.0,0 STARLINK-4524,1 53396U 22097J   22340.21363349  .00002362  00000-0  16643-3 0  9994,2 53396  53.2215  63.8891 0002437  35.3064 324.8089 15.08847977 18456,6917.856,95.437,541.4069999999998,538.035,0.0
53396.0,STARLINK-4524,PAYLOAD,2022-12-06 09:53:47,15.08840094,0.0002387,53.2223,62.997,40.6046,319.5124,0.00012664,1.728e-05,0.0,0 STARLINK-4524,1 53396U 22097J   22340.41236016  .00001728  00000-0  12664-3 0  9990,2 53396  53.2223  62.9970 0002387  40.6046 319.5124 15.08840094 18483,6917.88,95.438,541.396,538.094,0.0
53396.0,STARLINK-4524,PAYLOAD,2022-12-06 13:04:34,15.08828601,0.0002027,53.2204,62.4024,37.5047,322.6086,1.2250999999999997e-05,-9.3e-07,0.0,0 STARLINK-4524,1 53396U 22097J   22340.54484917 -.00000093  00000-0  12251-4 0  9997,2 53396  53.2204  62.4024 0002027  37.5047 322.6086 15.08828601 18992,6917.915,95.438,541.182,538.378,0.0
53396.0,STARLINK-4524,PAYLOAD,2022-12-07 12:55:22,15.0883005,0.0002466,53.2203,57.9409,32.9128,327.2017,-5.4719e-05,-1.159e-05,0.0,0 STARLINK-4524,1 53396U 22097J   22341.53845738 -.00001159  00000-0 -54719-4 0  9999,2 53396  53.2203  57.9409 0002466  32.9128 327.2017 15.08830050 19147,6917.911,95.438,541.482,538.07,0.0
53396.0,STARLINK-4524,PAYLOAD,2022-12-08 04:49:13,15.08838515,0.0002378,53.2193,54.967,27.3328,332.7789,0.00020573,2.987e-05,0.0,0 STARLINK-4524,1 53396U 22097J   22342.20084972  .00002987  00000-0  20573-3 0  9997,2 53396  53.2193  54.9670 0002378  27.3328 332.7789 15.08838515 18751,6917.885,95.438,541.395,538.105,0.0
53396.0,STARLINK-4524,PAYLOAD,2022-12-08 11:10:45,15.08850486,0.0002252,53.2211,53.7787,24.8476,335.2625,0.00035735,5.405e-05,0.0,0 STARLINK-4524,1 53396U 22097J   22342.46580392  .00005405  00000-0  35735-3 0  9996,2 53396  53.2211  53.7787 0002252  24.8476 335.2625 15.08850486 19282,6917.848000000001,95.437,541.271,538.155,0.0
53396.0,STARLINK-4524,PAYLOAD,2022-12-08 22:18:27,15.08832049,0.0002531,53.2202,51.7016,322.5479,37.5337,6.125e-05,6.86e-06,0.0,0 STARLINK-4524,1 53396U 22097J   22342.92947932  .00000686  00000-0  61250-4 0  9992,2 53396  53.2202  51.7016 0002531 322.5479  37.5337 15.08832049 18866,6917.905,95.438,541.521,538.019,0.0
53396.0,STARLINK-4524,PAYLOAD,2022-12-09 04:39:55,15.0893799,0.0002955,53.2204,50.5116,345.8508,14.2401,0.0012952,0.00020441,0.0,0 STARLINK-4524,1 53396U 22097J   22343.19439478  .00020441  00000-0  12952-2 0  9997,2 53396  53.2204  50.5116 0002955 345.8508  14.2401 15.08937990 18907,6917.581,95.431,541.49,537.4019999999998,0.0
53396.0,STARLINK-4524,PAYLOAD,2022-12-09 17:23:05,15.08840247,0.0002026,53.2202,48.1334,14.7126,345.3925,-8.534700000000001e-05,-1.646e-05,0.0,0 STARLINK-4524,1 53396U 22097J   22343.72436349 -.00001646  00000-0 -85347-4 0  9998,2 53396  53.2202  48.1334 0002026  14.7126 345.3925 15.08840247 18982,6917.88,95.438,541.146,538.3430000000002,0.0
53396.0,STARLINK-4524,PAYLOAD,2022-12-10 06:06:11,15.08827537,0.0002571,53.2194,45.755,353.3156,6.7801,0.00098787,0.00015464,0.0,0 STARLINK-4524,1 53396U 22097J   22344.25429701  .00015464  00000-0  98787-3 0  9993,2 53396  53.2194  45.7550 0002571 353.3156   6.7801 15.08827537 19063,6917.918000000002,95.438,541.562,538.005,0.0
53396.0,STARLINK-4524,PAYLOAD,2022-12-10 10:52:20,15.08831098,0.0002533,53.2204,44.8631,25.0159,335.0956,-0.00017511,-3.074e-05,0.0,0 STARLINK-4524,1 53396U 22097J   22344.45301672 -.00003074  00000-0 -17511-3 0  9993,2 53396  53.2204  44.8631 0002533  25.0159 335.0956 15.08831098 19582,6917.908,95.438,541.525,538.02,0.0
53396.0,STARLINK-4524,PAYLOAD,2022-12-10 15:38:30,15.08834611,0.000315,53.2201,43.97,25.3749,334.7397,-5.2399e-05,-1.123e-05,0.0,0 STARLINK-4524,1 53396U 22097J   22344.65173924 -.00001123  00000-0 -52399-4 0  9999,2 53396  53.2201  43.9700 0003150  25.3749 334.7397 15.08834611 19613,6917.897,95.438,541.941,537.5830000000002,0.0
